NORAD_CAT_ID,OBJECT_NAME,OBJECT_TYPE,EPOCH,MEAN_MOTION,ECCENTRICITY,INCLINATION,RA_OF_ASC_NODE,ARG_OF_PERICENTER,MEAN_ANOMALY,BSTAR,MEAN_MOTION_DOT,MEAN_MOTION_DDOT,TLE_LINE0,TLE_LINE1,TLE_LINE2,SEMIMAJOR_AXIS,PERIOD,APOGEE,PERIGEE,DECAYED
52125.0,STARLINK-3727,PAYLOAD,2022-08-20 14:00:01,15.08794693,0.0001844999999999,53.2138,132.0536,65.3227,330.5757,0.0034406999999999,0.00054829,0.0,0 STARLINK-3727,1 52125U 22029AP  22232.58334491  .00054829  00000-0  34407-2 0  9996,2 52125  53.2138 132.0536 0001845  65.3227 330.5757 15.08794693  1308,6918.019,95.44,541.16,538.6080000000002,0.0
52125.0,STARLINK-3727,PAYLOAD,2022-08-20 22:00:00,15.08839059,0.0001991,53.214,130.5585,63.0625,344.3943,-0.0014321,-0.00023008,0.0,0 STARLINK-3727,1 52125U 22029AP  22232.91667824 -.00023008  00000-0 -14321-2 0  9992,2 52125  53.2140 130.5585 0001991  63.0625 344.3943 15.08839059  1303,6917.8830000000025,95.438,541.126,538.371,0.0
52125.0,STARLINK-3727,PAYLOAD,2022-08-21 06:00:00,15.08826584,0.0002029,53.2139,129.0625,58.6793,0.3558,0.00084774,0.00013225,0.0,0 STARLINK-3727,1 52125U 22029AP  22233.25001157  .00013225  00000-0  84774-3 0  9999,2 52125  53.2139 129.0625 0002029  58.6793   0.3558 15.08826584 25214,6917.920999999999,95.438,541.19,538.383,0.0
52125.0,STARLINK-3727,PAYLOAD,2022-08-21 14:00:01,15.088133,0.000193,53.2141,127.5643,65.7836,4.8476,0.0032229,0.00051341,0.0,0 STARLINK-3727,1 52125U 22029AP  22233.58334491  .00051341  00000-0  32229-2 0  9993,2 52125  53.2141 127.5643 0001930  65.7836   4.8476 15.08813300  1301,6917.962,95.439,541.1619999999998,538.492,0.0
52125.0,STARLINK-3727,PAYLOAD,2022-08-21 22:00:00,15.08855954,0.0002089999999999,53.2143,126.0693,63.3809,18.8335,-0.0014254,-0.00022912,0.0,0 STARLINK-3727,1 52125U 22029AP  22233.91667824 -.00022912  00000-0 -14254-2 0  9991,2 52125  53.2143 126.0693 0002090  63.3809  18.8335 15.08855954  1304,6917.831999999999,95.437,541.1419999999998,538.251,0.0
52125.0,STARLINK-3727,PAYLOAD,2022-08-22 12:00:00,15.08841896,0.0001994,53.2148,123.4495,65.303,307.2268,0.0012607999999999,0.00019836,0.0,0 STARLINK-3727,1 52125U 22029AP  22234.50001157  .00019836  00000-0  12608-2 0  9998,2 52125  53.2148 123.4495 0001994  65.3030 307.2268 15.08841896 25407,6917.875,95.437,541.119,538.36,0.0
52125.0,STARLINK-3727,PAYLOAD,2022-08-22 22:00:00,15.08849074,0.0002072,53.2149,121.5801,62.7118,54.3281,-0.0019172,-0.00030679,0.0,0 STARLINK-3727,1 52125U 22029AP  22234.91667824 -.00030679  00000-0 -19172-2 0  9995,2 52125  53.2149 121.5801 0002072  62.7118  54.3281 15.08849074  1308,6917.853,95.437,541.151,538.284,0.0
52125.0,STARLINK-3727,PAYLOAD,2022-08-23 06:00:00,15.08843196,0.0002093,53.215,120.0839,59.8025,68.8271,-0.00019883,-3.452e-05,0.0,0 STARLINK-3727,1 52125U 22029AP  22235.25001157 -.00003452  00000-0 -19883-3 0  9993,2 52125  53.2150 120.0839 0002093  59.8025  68.8271 15.08843196 25519,6917.871,95.437,541.184,538.288,0.0
52125.0,STARLINK-3727,PAYLOAD,2022-08-23 14:00:01,15.08823803,0.000199,53.2153,118.586,66.7769,73.4565,0.0025915,0.00041179,0.0,0 STARLINK-3727,1 52125U 22029AP  22235.58334491  .00041179  00000-0  25915-2 0  9997,2 52125  53.2153 118.5860 0001990  66.7769  73.4565 15.08823803  1307,6917.93,95.439,541.172,538.418,0.0
52125.0,STARLINK-3727,PAYLOAD,2022-08-23 22:00:01,15.08854991,0.000212,53.2154,117.091,63.4898,88.4011,-0.0011752,-0.00018951,0.0,0 STARLINK-3727,1 52125U 22029AP  22235.91668981 -.00018951  00000-0 -11752-2 0  9996,2 52125  53.2154 117.0910 0002120  63.4898  88.4011 15.08854991  1305,6917.835,95.437,541.1659999999998,538.2330000000002,0.0
52125.0,STARLINK-3727,PAYLOAD,2022-08-24 14:00:01,15.08817497,0.0001913,53.2156,114.0968,67.7908,107.2554,0.0018059,0.00028552,0.0,0 STARLINK-3727,1 52125U 22029AP  22236.58334491  .00028552  00000-0  18059-2 0  9999,2 52125  53.2156 114.0968 0001913  67.7908 107.2554 15.08817497 25718,6917.949000000001,95.439,541.138,538.491,0.0
52125.0,STARLINK-3727,PAYLOAD,2022-08-24 22:00:00,15.08837752,0.0002034,53.2155,112.6021,63.6209,123.0072,-0.00092907,-0.00015043,0.0,0 STARLINK-3727,1 52125U 22029AP  22236.91667824 -.00015043  00000-0 -92907-3 0  9993,2 52125  53.2155 112.6021 0002034  63.6209 123.0072 15.08837752  1301,6917.887,95.438,541.159,538.345,0.0
52125.0,STARLINK-3727,PAYLOAD,2022-08-25 06:00:02,15.08847632,0.0002013,53.2152,111.1054,62.9722,135.2988,-0.0013862,-0.00022287,0.0,0 STARLINK-3727,1 52125U 22029AP  22237.25002315 -.00022287  00000-0 -13862-2 0  9999,2 52125  53.2152 111.1054 0002013  62.9722 135.2988 15.08847632 25818,6917.857,95.437,541.115,538.3290000000002,0.0
52125.0,STARLINK-3727,PAYLOAD,2022-08-25 14:00:01,15.08836522,0.0001934,53.2164,109.605,67.0875,142.7239,-2.906e-05,-7.51e-06,0.0,0 STARLINK-3727,1 52125U 22029AP  22237.58334491 -.00000751  00000-0 -29060-4 0  9999,2 52125  53.2164 109.6050 0001934  67.0875 142.7239 15.08836522  1301,6917.891,95.438,541.094,538.418,0.0
52125.0,STARLINK-3727,PAYLOAD,2022-08-25 22:00:00,15.08843876,0.0002037,53.2152,108.1131,65.7036,155.6956,-0.00073538,-0.00011974,0.0,0 STARLINK-3727,1 52125U 22029AP  22237.91667824 -.00011974  00000-0 -73538-3 0  9992,2 52125  53.2152 108.1131 0002037  65.7036 155.6956 15.08843876 25913,6917.869000000002,95.437,541.143,538.3240000000002,0.0
52125.0,STARLINK-3727,PAYLOAD,2022-08-26 14:00:01,15.08834889,0.0001942,53.2148,105.1185,72.9096,171.7515,0.0020266999999999,0.0003211,0.0,0 STARLINK-3727,1 52125U 22029AP  22238.58335648  .00032110  00000-0  20267-2 0  9995,2 52125  53.2148 105.1185 0001942  72.9096 171.7515 15.08834889 26010,6917.896,95.438,541.104,538.418,0.0
52125.0,STARLINK-3727,PAYLOAD,2022-08-26 22:00:00,15.08856844,0.0002026999999999,53.2145,103.6239,67.7713,188.4297,-0.0018319,-0.00029339,0.0,0 STARLINK-3727,1 52125U 22029AP  22238.91667824 -.00029339  00000-0 -18319-2 0  9992,2 52125  53.2145 103.6239 0002027  67.7713 188.4297 15.08856844  1305,6917.829000000002,95.436,541.096,538.2919999999998,0.0
52125.0,STARLINK-3727,PAYLOAD,2022-08-27 14:00:01,15.08819004,0.0001868,53.2141,100.6291,73.8018,205.5946,0.0019942,0.00031574,0.0,0 STARLINK-3727,1 52125U 22029AP  22239.58334491  .00031574  00000-0  19942-2 0  9992,2 52125  53.2141 100.6291 0001868  73.8018 205.5946 15.08819004  1303,6917.945,95.439,541.102,538.5169999999998,0.0
52125.0,STARLINK-3727,PAYLOAD,2022-08-27 20:00:01,15.08840042,0.0001943999999999,53.214,99.5082,69.1956,128.8842,-0.0012927,-0.00020803,0.0,0 STARLINK-3727,1 52125U 22029AP  22239.83334491 -.00020803  00000-0 -12927-2 0  9991,2 52125  53.2140  99.5082 0001944  69.1956 128.8842 15.08840042 26204,6917.88,95.438,541.09,538.4,0.0
52125.0,STARLINK-3727,PAYLOAD,2022-08-27 22:00:00,15.08829392,0.000199,53.2139,99.1344,67.5394,223.4402,9.059e-06,-1.44e-06,0.0,0 STARLINK-3727,1 52125U 22029AP  22239.91667824 -.00000144  00000-0  90590-5 0  9999,2 52125  53.2139  99.1344 0001990  67.5394 223.4402 15.08829392  1301,6917.913000000001,95.438,541.154,538.401,0.0
52125.0,STARLINK-3727,PAYLOAD,2022-08-28 14:00:01,15.08833722,0.0001923,53.2138,96.1395,74.4571,239.7034,0.0019027,0.00030118,0.0,0 STARLINK-3727,1 52125U 22029AP  22240.58334491  .00030118  00000-0  19027-2 0  9991,2 52125  53.2138  96.1395 0001923  74.4571 239.7034 15.08833722 26314,6917.9,95.438,541.095,538.434,0.0
52125.0,STARLINK-3727,PAYLOAD,2022-08-28 22:00:00,15.0885093,0.0002005999999999,53.2138,94.6447,67.7182,258.0432,-0.0012442,-0.00020041,0.0,0 STARLINK-3727,1 52125U 22029AP  22240.91667824 -.00020041  00000-0 -12442-2 0  9997,2 52125  53.2138  94.6447 0002006  67.7182 258.0432 15.08850930  1309,6917.847,95.437,541.1,538.3240000000002,0.0
52125.0,STARLINK-3727,PAYLOAD,2022-08-29 04:00:00,15.08852116,0.0001911999999999,53.2136,93.5219,66.0335,178.4254,-0.0028026,-0.00044631,0.0,0 STARLINK-3727,1 52125U 22029AP  22241.16667824 -.00044631  00000-0 -28026-2 0  9991,2 52125  53.2136  93.5219 0001912  66.0335 178.4254 15.08852116 26402,6917.843000000003,95.437,541.031,538.386,0.0
52125.0,STARLINK-3727,PAYLOAD,2022-08-29 14:00:01,15.08820707,0.0001875,53.214,91.6498,73.663,275.2802,0.0015622,0.00024649,0.0,0 STARLINK-3727,1 52125U 22029AP  22241.58334491  .00024649  00000-0  15622-2 0  9991,2 52125  53.2140  91.6498 0001875  73.6630 275.2802 15.08820707  1303,6917.939,95.439,541.101,538.507,0.0
52125.0,STARLINK-3727,PAYLOAD,2022-08-29 22:00:00,15.08826458,0.0002005,53.214,90.155,66.9261,293.6049,0.00061855,9.566e-05,0.0,0 STARLINK-3727,1 52125U 22029AP  22241.91667824  .00009566  00000-0  61855-3 0  9998,2 52125  53.2140  90.1550 0002005  66.9261 293.6049 15.08826458 26524,6917.922,95.438,541.174,538.4,0.0
52125.0,STARLINK-3727,PAYLOAD,2022-08-30 14:00:01,15.08841963,0.0001908,53.2145,87.1601,73.6925,310.0157,0.0013610999999999,0.00021442,0.0,0 STARLINK-3727,1 52125U 22029AP  22242.58334491  .00021442  00000-0  13611-2 0  9996,2 52125  53.2145  87.1601 0001908  73.6925 310.0157 15.08841963  1306,6917.874,95.437,541.059,538.419,0.0
52125.0,STARLINK-3727,PAYLOAD,2022-08-30 22:00:00,15.08850585,0.0001986999999999,53.2146,85.6653,66.8364,328.4739,-0.0020235,-0.00032358,0.0,0 STARLINK-3727,1 52125U 22029AP  22242.91667824 -.00032358  00000-0 -20235-2 0  9992,2 52125  53.2146  85.6653 0001987  66.8364 328.4739 15.08850585  1304,6917.848000000001,95.437,541.0880000000002,538.3380000000002,0.0
52125.0,STARLINK-3727,PAYLOAD,2022-08-31 14:00:01,15.08829166,0.0001817,53.2151,82.6706,73.6052,344.8811,0.00076159,0.0001185,0.0,0 STARLINK-3727,1 52125U 22029AP  22243.58334491  .00011850  00000-0  76159-3 0  9996,2 52125  53.2151  82.6706 0001817  73.6052 344.8811 15.08829166  1302,6917.9140000000025,95.438,541.035,538.5219999999998,0.0
52125.0,STARLINK-3727,PAYLOAD,2022-08-31 22:00:00,15.08820257,0.0001913,53.2152,81.1758,66.913,3.1638,0.0011673,0.00018328,0.0,0 STARLINK-3727,1 52125U 22029AP  22243.91667824  .00018328  00000-0  11673-2 0  9998,2 52125  53.2152  81.1758 0001913  66.9130   3.1638 15.08820257 26821,6917.941,95.439,541.129,538.482,0.0
